start=new Date('2023-02-21T00:00:00.000Z').valueOf();
sats=[{"TLE_LINE2":"2 52371  53.2161 146.2620 0001150  94.1398 265.9726 15.08860195 47865","RA_OF_ASC_NODE":"146.2620","DECAY_DATE":null,"ARG_OF_PERICENTER":"94.1398","TLE_LINE1":"1 52371U 22045AS  23051.53648130  .00022952  00000-0  14547-2 0  9995","TIME_SYSTEM":"UTC","CENTER_NAME":"EARTH","LAUNCH_DATE":"2022-04-29","RCS_SIZE":"LARGE","INCLINATION":"53.2161","PERIAPSIS":"538.888","MEAN_ELEMENT_THEORY":"SGP4","NORAD_CAT_ID":"52371","GP_ID":"226158417","OBJECT_TYPE":"PAYLOAD","ECCENTRICITY":"0.00011500","EPOCH":"2023-02-20T12:52:31.984320","EPHEMERIS_TYPE":"0","ELEMENT_SET_NO":"999","REV_AT_EPOCH":"4786","COUNTRY_CODE":"US","SITE":"AFETR","MEAN_MOTION_DOT":"0.00022952","PERIOD":"95.436","APOAPSIS":"540.479","SEMIMAJOR_AXIS":"6917.819","MEAN_MOTION_DDOT":"0.0000000000000","CLASSIFICATION_TYPE":"U","REF_FRAME":"TEME","FILE":"3815761","MEAN_MOTION":"15.08860195","OBJECT_NAME":"STARLINK-3798","BSTAR":"0.00145470000000","OBJECT_ID":"2022-045AS","MEAN_ANOMALY":"265.9726"},{"MEAN_MOTION":"15.08843067","FILE":"3815761","REF_FRAME":"TEME","OBJECT_ID":"2022-045AT","MEAN_ANOMALY":"258.4314","BSTAR":"0.00013448000000","OBJECT_NAME":"STARLINK-3796","MEAN_MOTION_DOT":"0.00001853","PERIOD":"95.437","SITE":"AFETR","COUNTRY_CODE":"US","MEAN_MOTION_DDOT":"0.0000000000000","CLASSIFICATION_TYPE":"U","SEMIMAJOR_AXIS":"6917.871","APOAPSIS":"540.498","GP_ID":"226158668","OBJECT_TYPE":"PAYLOAD","MEAN_ELEMENT_THEORY":"SGP4","NORAD_CAT_ID":"52372","REV_AT_EPOCH":"4786","ELEMENT_SET_NO":"999","EPHEMERIS_TYPE":"0","EPOCH":"2023-02-20T12:41:56.332608","ECCENTRICITY":"0.00011010","ARG_OF_PERICENTER":"101.6802","DECAY_DATE":null,"RA_OF_ASC_NODE":"146.2938","TLE_LINE2":"2 52372  53.2154 146.2938 0001101 101.6802 258.4314 15.08843067 47869","PERIAPSIS":"538.974","INCLINATION":"53.2154","RCS_SIZE":"LARGE","LAUNCH_DATE":"2022-04-29","CENTER_NAME":"EARTH","TIME_SYSTEM":"UTC","TLE_LINE1":"1 52372U 22045AT  23051.52912422  .00001853  00000-0  13448-3 0  9990"},{"REV_AT_EPOCH":"4788","EPHEMERIS_TYPE":"0","ELEMENT_SET_NO":"999","ECCENTRICITY":"0.00013100","EPOCH":"2023-02-20T14:01:25.355136","GP_ID":"226157417","OBJECT_TYPE":"PAYLOAD","MEAN_ELEMENT_THEORY":"SGP4","NORAD_CAT_ID":"52373","RCS_SIZE":"LARGE","INCLINATION":"53.2167","PERIAPSIS":"538.771","TIME_SYSTEM":"UTC","LAUNCH_DATE":"2022-04-29","CENTER_NAME":"EARTH","TLE_LINE1":"1 52373U 22045AU  23051.58432124  .00013072  00000-0  83737-3 0  9997","ARG_OF_PERICENTER":"87.1415","DECAY_DATE":null,"RA_OF_ASC_NODE":"146.0457","TLE_LINE2":"2 52373  53.2167 146.0457 0001310  87.1415 272.9727 15.08862161 47885","OBJECT_ID":"2022-045AU","MEAN_ANOMALY":"272.9727","BSTAR":"0.00083737000000","OBJECT_NAME":"STARLINK-3550","MEAN_MOTION":"15.08862161","REF_FRAME":"TEME","FILE":"3815761","SEMIMAJOR_AXIS":"6917.813","CLASSIFICATION_TYPE":"U","MEAN_MOTION_DDOT":"0.0000000000000","APOAPSIS":"540.584","MEAN_MOTION_DOT":"0.00013072","PERIOD":"95.436","COUNTRY_CODE":"US","SITE":"AFETR"},{"MEAN_MOTION_DOT":"0.00003469","PERIOD":"95.437","COUNTRY_CODE":"US","SITE":"AFETR","MEAN_MOTION_DDOT":"0.0000000000000","CLASSIFICATION_TYPE":"U","SEMIMAJOR_AXIS":"6917.835","APOAPSIS":"540.674","MEAN_MOTION":"15.08854728","FILE":"3817175","REF_FRAME":"TEME","MEAN_ANOMALY":"271.6062","OBJECT_ID":"2022-045AV","BSTAR":"0.00023584000000","OBJECT_NAME":"STARLINK-3762","ARG_OF_PERICENTER":"88.5092","DECAY_DATE":null,"RA_OF_ASC_NODE":"145.7342","TLE_LINE2":"2 52374  53.2183 145.7342 0001407  88.5092 271.6062 15.08854728 47895","INCLINATION":"53.2183","PERIAPSIS":"538.727","RCS_SIZE":"LARGE","CENTER_NAME":"EARTH","LAUNCH_DATE":"2022-04-29","TIME_SYSTEM":"UTC","TLE_LINE1":"1 52374U 22045AV  23051.65423786  .00003469  00000-0  23584-3 0  9993","OBJECT_TYPE":"PAYLOAD","GP_ID":"226190959","MEAN_ELEMENT_THEORY":"SGP4","NORAD_CAT_ID":"52374","REV_AT_EPOCH":"4789","ELEMENT_SET_NO":"999","EPHEMERIS_TYPE":"0","EPOCH":"2023-02-20T15:42:06.151104","ECCENTRICITY":"0.00014070"},{"APOAPSIS":"540.288","SEMIMAJOR_AXIS":"6917.838","MEAN_MOTION_DDOT":"0.0000000000000","CLASSIFICATION_TYPE":"U","COUNTRY_CODE":"US","SITE":"AFETR","PERIOD":"95.437","MEAN_MOTION_DOT":"0.00025778","OBJECT_NAME":"STARLINK-3785","BSTAR":"0.00163120000000","OBJECT_ID":"2022-045AW","MEAN_ANOMALY":"263.4293","REF_FRAME":"TEME","FILE":"3815761","MEAN_MOTION":"15.08853832","TLE_LINE1":"1 52375U 22045AW  23051.52544644  .00025778  00000-0  16312-2 0  9994","TIME_SYSTEM":"UTC","LAUNCH_DATE":"2022-04-29","CENTER_NAME":"EARTH","RCS_SIZE":"LARGE","INCLINATION":"53.2141","PERIAPSIS":"539.119","TLE_LINE2":"2 52375  53.2141 146.3108 0000845  96.6796 263.4293 15.08853832 47871","RA_OF_ASC_NODE":"146.3108","DECAY_DATE":null,"ARG_OF_PERICENTER":"96.6796","ECCENTRICITY":"0.00008450","EPOCH":"2023-02-20T12:36:38.572416","EPHEMERIS_TYPE":"0","ELEMENT_SET_NO":"999","REV_AT_EPOCH":"4787","NORAD_CAT_ID":"52375","MEAN_ELEMENT_THEORY":"SGP4","OBJECT_TYPE":"PAYLOAD","GP_ID":"226158918"},{"OBJECT_NAME":"STARLINK-3767","OBJECT_ID":"2022-045AX","MEAN_ANOMALY":"260.3033","BSTAR":"0.00028817000000","FILE":"3815761","REF_FRAME":"TEME","MEAN_MOTION":"15.08852212","MEAN_MOTION_DDOT":"0.0000000000000","CLASSIFICATION_TYPE":"U","SEMIMAJOR_AXIS":"6917.843","APOAPSIS":"540.522","MEAN_MOTION_DOT":"0.00004303","PERIOD":"95.437","COUNTRY_CODE":"US","SITE":"AFETR","EPOCH":"2023-02-20T13:56:07.467072","ECCENTRICITY":"0.00011770","REV_AT_EPOCH":"4788","ELEMENT_SET_NO":"999","EPHEMERIS_TYPE":"0","MEAN_ELEMENT_THEORY":"SGP4","NORAD_CAT_ID":"52376","GP_ID":"226159169","OBJECT_TYPE":"PAYLOAD","CENTER_NAME":"EARTH","LAUNCH_DATE":"2022-04-29","TIME_SYSTEM":"UTC","TLE_LINE1":"1 52376U 22045AX  23051.58064198  .00004303  00000-0  28817-3 0  9997","INCLINATION":"53.2170","PERIAPSIS":"538.894","RCS_SIZE":"LARGE","RA_OF_ASC_NODE":"146.0631","TLE_LINE2":"2 52376  53.2170 146.0631 0001177  99.8092 260.3033 15.08852212 47885","ARG_OF_PERICENTER":"99.8092","DECAY_DATE":null},{"OBJECT_NAME":"STARLINK-3805","OBJECT_ID":"2022-045AY","MEAN_ANOMALY":"111.7530","BSTAR":"0.00132620000000","FILE":"3817176","REF_FRAME":"TEME","MEAN_MOTION":"15.07187869","CLASSIFICATION_TYPE":"U","MEAN_MOTION_DDOT":"0.0000000000000","SEMIMAJOR_AXIS":"6922.935","APOAPSIS":"545.663","PERIOD":"95.542","MEAN_MOTION_DOT":"0.00019952","COUNTRY_CODE":"US","SITE":"AFETR","EPOCH":"2023-02-21T02:00:01.000224","ECCENTRICITY":"0.00012470","REV_AT_EPOCH":"4794","ELEMENT_SET_NO":"999","EPHEMERIS_TYPE":"0","NORAD_CAT_ID":"52377","MEAN_ELEMENT_THEORY":"SGP4","GP_ID":"226190739","OBJECT_TYPE":"PAYLOAD","LAUNCH_DATE":"2022-04-29","CENTER_NAME":"EARTH","TIME_SYSTEM":"UTC","TLE_LINE1":"1 52377U 22045AY  23052.08334491  .00019952  00000-0  13262-2 0  9993","PERIAPSIS":"543.937","INCLINATION":"53.2135","RCS_SIZE":"LARGE","RA_OF_ASC_NODE":"143.8146","TLE_LINE2":"2 52377  53.2135 143.8146 0001247  90.3646 111.7530 15.07187869 47948","ARG_OF_PERICENTER":"90.3646","DECAY_DATE":null},{"COUNTRY_CODE":"US","SITE":"AFETR","PERIOD":"95.437","MEAN_MOTION_DOT":"0.00020805","APOAPSIS":"540.517","MEAN_MOTION_DDOT":"0.0000000000000","CLASSIFICATION_TYPE":"U","SEMIMAJOR_AXIS":"6917.876","FILE":"3815761","REF_FRAME":"TEME","MEAN_MOTION":"15.08841276","OBJECT_NAME":"STARLINK-3806","BSTAR":"0.00132140000000","OBJECT_ID":"2022-045AZ","MEAN_ANOMALY":"267.2789","TLE_LINE2":"2 52378  53.2146 146.0971 0001121  92.8331 267.2789 15.08841276 47887","RA_OF_ASC_NODE":"146.0971","DECAY_DATE":null,"ARG_OF_PERICENTER":"92.8331","TLE_LINE1":"1 52378U 22045AZ  23051.57328490  .00020805  00000-0  13214-2 0  9995","CENTER_NAME":"EARTH","LAUNCH_DATE":"2022-04-29","TIME_SYSTEM":"UTC","PERIAPSIS":"538.966","INCLINATION":"53.2146","RCS_SIZE":"LARGE","MEAN_ELEMENT_THEORY":"SGP4","NORAD_CAT_ID":"52378","OBJECT_TYPE":"PAYLOAD","GP_ID":"226158168","EPOCH":"2023-02-20T13:45:31.815360","ECCENTRICITY":"0.00011210","ELEMENT_SET_NO":"999","EPHEMERIS_TYPE":"0","REV_AT_EPOCH":"4788"},{"FILE":"3815761","REF_FRAME":"TEME","MEAN_MOTION":"15.08855869","OBJECT_NAME":"STARLINK-3800","MEAN_ANOMALY":"275.9451","OBJECT_ID":"2022-045BA","BSTAR":"0.00064579000000","PERIOD":"95.437","MEAN_MOTION_DOT":"0.00010009","SITE":"AFETR","COUNTRY_CODE":"US","MEAN_MOTION_DDOT":"0.0000000000000","CLASSIFICATION_TYPE":"U","SEMIMAJOR_AXIS":"6917.832","APOAPSIS":"540.566","NORAD_CAT_ID":"52379","MEAN_ELEMENT_THEORY":"SGP4","OBJECT_TYPE":"PAYLOAD","GP_ID":"226158418","EPOCH":"2023-02-20T13:50:49.583328","ECCENTRICITY":"0.00012570","REV_AT_EPOCH":"4788","ELEMENT_SET_NO":"999","EPHEMERIS_TYPE":"0","RA_OF_ASC_NODE":"146.0825","TLE_LINE2":"2 52379  53.2137 146.0825 0001257  84.1685 275.9451 15.08855869 47887","ARG_OF_PERICENTER":"84.1685","DECAY_DATE":null,"CENTER_NAME":"EARTH","LAUNCH_DATE":"2022-04-29","TIME_SYSTEM":"UTC","TLE_LINE1":"1 52379U 22045BA  23051.57696277  .00010009  00000-0  64579-3 0  9993","PERIAPSIS":"538.827","INCLINATION":"53.2137","RCS_SIZE":"LARGE"},{"SITE":"AFETR","COUNTRY_CODE":"US","PERIOD":"95.436","MEAN_MOTION_DOT":"0.00009681","APOAPSIS":"540.669","MEAN_MOTION_DDOT":"0.0000000000000","CLASSIFICATION_TYPE":"U","SEMIMAJOR_AXIS":"6917.819","MEAN_MOTION":"15.08860194","FILE":"3815761","REF_FRAME":"TEME","BSTAR":"0.00062517000000","OBJECT_ID":"2022-045BB","MEAN_ANOMALY":"281.1309","OBJECT_NAME":"STARLINK-3793","DECAY_DATE":null,"ARG_OF_PERICENTER":"78.9843","TLE_LINE2":"2 52380  53.2172 136.2028 0001424  78.9843 281.1309 15.08860194 48011","RA_OF_ASC_NODE":"136.2028","INCLINATION":"53.2172","PERIAPSIS":"538.699","RCS_SIZE":"LARGE","TLE_LINE1":"1 52380U 22045BB  23051.55580633  .00009681  00000-0  62517-3 0  9995","LAUNCH_DATE":"2022-04-29","CENTER_NAME":"EARTH","TIME_SYSTEM":"UTC","GP_ID":"226158669","OBJECT_TYPE":"PAYLOAD","NORAD_CAT_ID":"52380","MEAN_ELEMENT_THEORY":"SGP4","ELEMENT_SET_NO":"999","EPHEMERIS_TYPE":"0","REV_AT_EPOCH":"4801","EPOCH":"2023-02-20T13:20:21.666912","ECCENTRICITY":"0.00014240"}];
